[{"OBJECT_NAME":"FLOCK 4BE-32","OBJECT_ID":"2024-149AF","EPOCH":"2026-03-09T19:11:59.009856","MEAN_MOTION":15.38487968,"ECCENTRICITY":0.0002762,"INCLINATION":97.376,"RA_OF_ASC_NODE":151.9037,"ARG_OF_PERICENTER":261.0637,"MEAN_ANOMALY":99.0296,"EPHEMERIS_TYPE":0,"CLASSIFICATION_TYPE":"U","NORAD_CAT_ID":60497,"ELEMENT_SET_NO":999,"REV_AT_EPOCH":8703,"BSTAR":0.00058115352,"MEAN_MOTION_DOT":0.00022026,"MEAN_MOTION_DDOT":0},{"OBJECT_NAME":"STARLINK-35085","OBJECT_ID":"2025-192R","EPOCH":"2026-03-09T17:42:00.572832","MEAN_MOTION":15.36219796,"ECCENTRICITY":3.993e-5,"INCLINATION":53.1594,"RA_OF_ASC_NODE":231.98,"ARG_OF_PERICENTER":74.5933,"MEAN_ANOMALY":285.5115,"EPHEMERIS_TYPE":0,"CLASSIFICATION_TYPE":"U","NORAD_CAT_ID":65419,"ELEMENT_SET_NO":999,"REV_AT_EPOCH":2939,"BSTAR":0.0010199215,"MEAN_MOTION_DOT":0.00036316,"MEAN_MOTION_DDOT":0}]
