FLOCK 4BE-32            
1 60497U 24149AF  26068.79998853  .00022026  00000+0  58115-3 0  9990
2 60497  97.3760 151.9037 0002762 261.0637  99.0296 15.38487968 87030
STARLINK-35085          
1 65419U 25192R   26068.73750662  .00036316  00000+0  10199-2 0  9992
2 65419  53.1594 231.9800 0000399  74.5933 285.5115 15.36219796 29398
